,Type,Port,STS,VIS,WD,WS,Temp,Original Message,IssueTime,Pressure,DuePoint,DensityAltitude,Headwind,Crosswind,Wet
0,METAR,RKSI,7,5000,130,6,3,"211500Z 13006KT 5000 BR FEW015 SCT040 BKN200 03/00_x000d_
          Q1024 NOSIG=",2019-12-22 00:00:00,1024.0,0.0,-1701.2325946335066,5.8046680410579246,1.518495615114105,0.0
1,METAR,RKSI,7,5000,140,6,2,"211530Z 14006KT 5000 BR FEW015 SCT040 BKN200 02/M00_x000d_
          Q1024 NOSIG=",2019-12-22 00:30:00,1024.0,0.0,-1826.6654763659906,5.980166086855819,0.4874562273882336,0.0
2,METAR,RKSI,7,5000,130,6,3,"211600Z 13006KT 5000 BR FEW015 SCT040 BKN200 03/00_x000d_
          Q1024 NOSIG=",2019-12-22 01:00:00,1024.0,0.0,-1701.2325946335066,5.8046680410579246,1.518495615114105,0.0
3,METAR,RKSI,0,6000,90,5,3,"211630Z 09005KT 040V130 6000 FEW015 SCT040 BKN200_x000d_
          03/00 Q1024 NOSIG=",2019-12-22 01:30:00,1024.0,0.0,-1701.2325946335066,2.892136275203383,4.078669852495136,0.0
4,METAR,RKSI,0,6000,70,4,2,"211700Z 07004KT 6000 SCT040 BKN200 02/M00 Q1024_x000d_
          NOSIG=",2019-12-22 02:00:00,1024.0,0.0,-1826.6654763659906,1.058185494869913,3.8574918610992452,0.0
5,METAR,RKSI,0,6000,90,3,2,"211730Z 09003KT 6000 SCT040 BKN200 02/M01 Q1024_x000d_
          NOSIG=",2019-12-22 02:30:00,1024.0,-1.0,-1832.1714548547654,1.7352817651220298,2.447201911497082,0.0
6,METAR,RKSI,7,5000,60,5,1,"211800Z 06005KT 5000 BR FEW040 BKN200 01/M01 Q1024_x000d_
          NOSIG=",2019-12-22 03:00:00,1024.0,-1.0,-1958.1733177003034,0.4653285592850648,4.978299843512209,0.0
7,METAR,RKSI,7,5000,60,5,1,"211830Z 06005KT 5000 BR FEW040 BKN200 01/M01 Q1023_x000d_
          NOSIG=",2019-12-22 03:30:00,1023.0,-1.0,-1924.279782554091,0.4653285592850648,4.978299843512209,0.0
8,METAR,RKSI,7,4000,60,5,1,"211900Z 06005KT 4000 BR FEW040 BKN200 01/M01 Q1023_x000d_
          NOSIG=",2019-12-22 04:00:00,1023.0,-1.0,-1924.279782554091,0.4653285592850648,4.978299843512209,0.0
9,METAR,RKSI,7,4000,60,5,1,"211930Z 06005KT 4000 BR FEW040 BKN200 01/M01 Q1023_x000d_
          NOSIG=",2019-12-22 04:30:00,1023.0,-1.0,-1924.279782554091,0.4653285592850648,4.978299843512209,0.0
10,METAR,RKSI,7,4000,110,2,1,"212000Z 11002KT 4000 BR FEW040 BKN200 01/M02 Q1022_x000d_
          NOSIG=",2019-12-22 05:00:00,1022.0,-2.0,-1895.5328193058326,1.6450825454577334,1.137410839859681,0.0
11,METAR,RKSI,7,4500,120,4,1,"212030Z 12004KT 4500 BR FEW040 BKN200 01/M01 Q1022_x000d_
          NOSIG=",2019-12-22 05:30:00,1022.0,-1.0,-1890.3608389261144,3.6351987294241606,1.668930854647061,0.0
12,METAR,RKSI,7,5000,120,3,1,"212100Z 12003KT 5000 BR FEW040 BKN200 01/M01 Q1023_x000d_
          NOSIG=",2019-12-22 06:00:00,1023.0,-1.0,-1924.279782554091,2.7263990470681203,1.2516981409852956,0.0
13,METAR,RKSI,7,5000,110,1,1,"212130Z 11001KT 5000 BR FEW040 SCT150 BKN200 01/M01_x000d_
          Q1023 NOSIG=",2019-12-22 06:30:00,1023.0,-1.0,-1924.279782554091,0.8225412727288667,0.5687054199298405,0.0
14,METAR,RKSI,7,4500,70,2,1,"212200Z 07002KT 4500 BR FEW040 SCT150 BKN200 01/M01_x000d_
          Q1023 NOSIG=",2019-12-22 07:00:00,1023.0,-1.0,-1924.279782554091,0.5290927474349565,1.9287459305496226,0.0
15,METAR,RKSI,7,4500,120,4,1,212230Z 12004KT 4500 BR NSC 01/M01 Q1023 NOSIG=,2019-12-22 07:30:00,1023.0,-1.0,-1924.279782554091,3.6351987294241606,1.668930854647061,0.0
16,METAR,RKSI,7,4500,80,3,1,"212300Z 08003KT 040V110 4500 BR NSC 01/M01 Q1023_x000d_
          NOSIG=",2019-12-22 08:00:00,1023.0,-1.0,-1924.279782554091,1.2839667836383875,2.7113519318807167,0.0
17,METAR,RKSI,7,5000,60,5,1,212330Z 06005KT 5000 BR NSC 01/M02 Q1023 NOSIG=,2019-12-22 08:30:00,1023.0,-2.0,-1929.4478870257833,0.4653285592850648,4.978299843512209,0.0
18,METAR,RKSI,7,5000,60,4,2,220000Z 06004KT 5000 BR NSC 02/M01 Q1023 NOSIG=,2019-12-22 09:00:00,1023.0,-1.0,-1798.3069078132576,0.3722628474280518,3.982639874809767,0.0
19,METAR,RKSI,7,5000,80,3,2,"220030Z 08003KT 050V110 5000 BR FEW010 SCT050 BKN140_x000d_
          02/M01 Q1023 NOSIG=",2019-12-22 09:30:00,1023.0,-1.0,-1798.3069078132576,1.2839667836383875,2.7113519318807167,0.0
20,METAR,RKSI,7,4200,50,5,2,"220100Z 05005KT 4200 BR FEW010 SCT050 BKN140 02/M00_x000d_
          Q1023 NOSIG=",2019-12-22 10:00:00,1023.0,0.0,-1792.7968034297162,0.406213522823527,4.983471739046515,0.0
21,METAR,RKSI,7,4200,50,6,3,220130Z 05006KT 4200 BR NSC 03/00 Q1023 NOSIG=,2019-12-22 10:30:00,1023.0,0.0,-1667.3927834970575,0.48745622738823247,5.980166086855819,0.0
22,METAR,RKSI,7,5000,60,3,5,"220200Z 06003KT 030V110 5000 BR NSC 05/00 Q1023_x000d_
          NOSIG=",2019-12-22 11:00:00,1023.0,0.0,-1418.25898859302,0.27919713557103887,2.9869799061073254,0.0
23,METAR,RKSI,7,5000,50,4,5,220230Z 05004KT 5000 BR NSC 05/00 Q1022 NOSIG=,2019-12-22 11:30:00,1022.0,0.0,-1384.4511864676758,0.3249708182588216,3.9867773912372124,0.0
24,METAR,RKSI,7,5000,140,7,5,220300Z 14007KT 5000 BR FEW040 05/00 Q1021 NOSIG=,2019-12-22 12:00:00,1021.0,0.0,-1350.6180112226994,6.976860434665122,0.5686989319529392,0.0
25,METAR,RKSI,0,6000,120,7,6,220330Z 12007KT 6000 FEW040 06/00 Q1020 NOSIG=,2019-12-22 12:30:00,1020.0,0.0,-1193.1062548591144,6.361597776492281,2.920628995632357,0.0
26,METAR,RKSI,0,6000,40,5,7,220400Z 04005KT 6000 NSC 07/01 Q1019 NOSIG=,2019-12-22 13:00:00,1019.0,1.0,-1030.302699413737,1.2654130125950867,4.83722336754827,0.0
27,METAR,RKSI,0,6000,50,2,7,220430Z 05002KT 6000 NSC 07/01 Q1019 NOSIG=,2019-12-22 13:30:00,1019.0,1.0,-1030.302699413737,0.1624854091294108,1.9933886956186062,0.0
28,METAR,RKSI,0,6000,120,2,7,220500Z 12002KT 6000 NSC 07/00 Q1019 NOSIG=,2019-12-22 14:00:00,1019.0,0.0,-1036.1718925595935,1.8175993647120803,0.8344654273235305,0.0
29,METAR,RKSI,0,6000,350,4,8,220530Z 35004KT 320V030 6000 NSC 08/M00 Q1019 NOSIG=,2019-12-22 14:30:00,1019.0,0.0,-913.634402392655,3.615135909174289,1.7119557115178494,0.0
30,METAR,RKSI,0,6000,60,4,7,220600Z 06004KT 6000 NSC 07/01 Q1018 NOSIG=,2019-12-22 15:00:00,1018.0,1.0,-996.4457651559353,0.3722628474280518,3.982639874809767,0.0
31,METAR,RKSI,0,6000,70,3,7,220630Z 07003KT 040V120 6000 NSC 07/00 Q1018 NOSIG=,2019-12-22 15:30:00,1018.0,0.0,-1002.3193787484587,0.7936391211524347,2.893118895824434,0.0
32,METAR,RKSI,0,6000,150,6,7,220700Z 15006KT 6000 NSC 07/01 Q1018 NOSIG=,2019-12-22 16:00:00,1018.0,1.0,-996.4457651559353,5.973959812214652,0.5583942711420765,0.0
33,METAR,RKSI,0,6000,150,5,7,220730Z 15005KT 6000 NSC 07/00 Q1018 NOSIG=,2019-12-22 16:30:00,1018.0,0.0,-1002.3193787484587,4.978299843512209,0.4653285592850637,0.0
34,METAR,RKSI,0,6000,150,5,6,220800Z 15005KT 6000 NSC 06/00 Q1018 NOSIG=,2019-12-22 17:00:00,1018.0,0.0,-1125.3697921959952,4.978299843512209,0.4653285592850637,0.0
35,METAR,RKSI,0,6000,150,4,5,220830Z 15004KT 6000 NSC 05/00 Q1019 NOSIG=,2019-12-22 17:30:00,1019.0,0.0,-1282.8753653404058,3.9826398748097676,0.372262847428051,0.0
36,METAR,RKSI,0,6000,170,5,7,220900Z 17005KT 130V210 6000 NSC 07/01 Q1019 NOSIG=,2019-12-22 18:00:00,1019.0,1.0,-1030.302699413737,4.518919886467861,2.1399446393973127,0.0
37,METAR,RKSI,4,6000,190,7,7,220930Z 19007KT 6000 NSC 07/01 Q1018 BECMG -RA=,2019-12-22 18:30:00,1018.0,1.0,-996.4457651559353,4.92028809854523,4.979032539290556,1.0
38,METAR,RKSI,4,6000,190,7,7,221000Z 19007KT 6000 NSC 07/01 Q1019 BECMG -RA=,2019-12-22 19:00:00,1019.0,1.0,-1030.302699413737,4.92028809854523,4.979032539290556,1.0
39,METAR,RKSI,4,6000,190,8,7,221030Z 19008KT 6000 NSC 07/01 Q1018 BECMG -RA=,2019-12-22 19:30:00,1018.0,1.0,-996.4457651559353,5.623186398337406,5.69032290204635,1.0
40,METAR,RKSI,4,6000,170,7,7,"221100Z 17007KT 6000 -RA SCT040 BKN100 07/01 Q1018_x000d_
          NOSIG=",2019-12-22 20:00:00,1018.0,1.0,-996.4457651559353,6.326487841055005,2.9959224951562375,1.0
41,METAR,RKSI,4,6000,160,9,7,"221130Z 16009KT 6000 -RA SCT040 BKN100 07/00 Q1018_x000d_
          NOSIG=",2019-12-22 20:30:00,1018.0,0.0,-1002.3193787484587,8.679356687473302,2.3809173634573044,1.0
42,METAR,RKSI,4,6000,150,9,6,"221200Z 15009KT 6000 SCT040 BKN080 06/01 Q1017 BECMG_x000d_
          -RA=",2019-12-22 21:00:00,1017.0,1.0,-1085.5803073534585,8.960939718321978,0.8375914067131147,1.0
43,METAR,RKSI,7,5000,150,12,6,"221230Z 15012KT 5000 BR BKN040 OVC080 06/01 Q1017_x000d_
          BECMG -RA=",2019-12-22 21:30:00,1017.0,1.0,-1085.5803073534585,11.947919624429304,1.116788542284153,1.0
44,METAR,RKSI,7,5000,160,11,6,"221300Z 16011KT 5000 BR BKN040 OVC080 06/00 Q1017_x000d_
          BECMG -RA=",2019-12-22 22:00:00,1017.0,0.0,-1091.4632906936556,10.608102618022924,2.9100101108922605,1.0
45,METAR,RKSI,4,4000,180,11,7,"221330Z 18011KT 4000 -RA BR FEW010 BKN025 OVC080_x000d_
          07/01 Q1017 NOSIG=",2019-12-22 22:30:00,1017.0,1.0,-962.5633164383623,8.973073675489301,6.362699805447443,1.0
46,METAR,RKSI,4,4000,160,8,6,"221400Z 16008KT 4000 -RA BR FEW010 BKN025 OVC080_x000d_
          06/03 Q1017 NOSIG=",2019-12-22 23:00:00,1017.0,3.0,-1072.629853396244,7.7149837221984905,2.116370989739826,1.0
47,METAR,RKSI,4,4000,190,8,7,"221430Z 19008KT 4000 -RA BR FEW010 BKN025 OVC080_x000d_
          07/03 Q1017 NOSIG=",2019-12-22 23:30:00,1017.0,3.0,-949.6237406558679,5.623186398337406,5.69032290204635,1.0
48,METAR,RKSI,4,4000,250,11,6,"221500Z 25011KT 4000 -RA BR FEW010 BKN025 OVC080_x000d_
          06/04 Q1017 NOSIG=",2019-12-23 00:00:00,1017.0,4.0,-1065.517741328434,2.9100101108922596,10.608102618022924,1.0
49,METAR,RKSI,4,4000,240,14,7,"221530Z 24014KT 4000 -RA FEW010 BKN025 OVC080 07/04_x000d_
          Q1017 NOSIG=",2019-12-23 00:30:00,1017.0,4.0,-942.517602648697,1.3029199659981796,13.939239561834187,1.0
50,METAR,RKSI,4,6000,250,10,7,"221600Z 25010KT 6000 -RA FEW010 BKN025 OVC080 07/05_x000d_
          Q1017 NOSIG=",2019-12-23 01:00:00,1017.0,5.0,-934.9557792022773,2.645463737174781,9.643729652748114,1.0
51,METAR,RKSI,4,6000,290,10,6,"221630Z 29010KT 6000 -RA FEW010 BKN025 OVC080 06/04_x000d_
          Q1017 NOSIG=",2019-12-23 01:30:00,1017.0,4.0,-1065.517741328434,8.225412727288665,5.687054199298408,1.0
52,METAR,RKSI,0,10000,300,9,6,221700Z 30009KT 9999 BKN040 OVC080 06/04 Q1017 NOSIG=,2019-12-23 02:00:00,1017.0,4.0,-1065.517741328434,8.17919714120436,3.755094422955888,0.0
53,METAR,RKSI,0,10000,300,8,6,221730Z 30008KT 9999 BKN030 OVC080 06/03 Q1017 NOSIG=,2019-12-23 02:30:00,1017.0,3.0,-1072.629853396244,7.270397458848321,3.3378617092941223,0.0
54,METAR,RKSI,0,10000,310,8,6,221800Z 31008KT 9999 BKN030 06/03 Q1018 NOSIG=,2019-12-23 03:00:00,1018.0,3.0,-1106.5505454567628,7.739557388077231,2.0246608201521417,0.0
55,METAR,RKSI,0,10000,310,6,6,221830Z 31006KT 9999 BKN035 06/03 Q1018 NOSIG=,2019-12-23 03:30:00,1018.0,3.0,-1106.5505454567628,5.804668041057924,1.5184956151141062,0.0
56,METAR,RKSI,0,8000,300,7,5,221900Z 30007KT 8000 BKN040 05/03 Q1018 NOSIG=,2019-12-23 04:00:00,1018.0,3.0,-1230.1306816893452,6.361597776492281,2.920628995632357,0.0
57,METAR,RKSI,0,6000,310,7,5,221930Z 31007KT 6000 SCT040 05/02 Q1018 NOSIG=,2019-12-23 04:30:00,1018.0,2.0,-1236.8111929178044,6.7721127145675775,1.7715782176331238,0.0
58,METAR,RKSI,7,4500,320,7,4,222000Z 32007KT 4500 BR FEW040 04/01 Q1018 NOSIG=,2019-12-23 05:00:00,1018.0,1.0,-1367.2233219961959,6.976860434665121,0.5686989319529422,0.0
59,METAR,RKSI,7,4500,300,7,4,222030Z 30007KT 4500 BR FEW020 04/02 Q1018 NOSIG=,2019-12-23 05:30:00,1018.0,2.0,-1360.9469097461033,6.361597776492281,2.920628995632357,0.0
60,METAR,RKSI,7,5000,290,11,4,222100Z 29011KT 5000 BR FEW020 04/01 Q1019 NOSIG=,2019-12-23 06:00:00,1019.0,1.0,-1401.1660254641147,9.047954000017532,6.2557596192282485,0.0
61,METAR,RKSI,7,5000,300,12,4,222130Z 30012KT 5000 BR FEW020 04/00 Q1019 NOSIG=,2019-12-23 06:30:00,1019.0,0.0,-1407.0500869396349,10.905596188272481,5.006792563941183,0.0
62,METAR,RKSI,7,5000,310,13,3,"222200Z 31013KT 5000 BR FEW015 SCT030 03/01 Q1020_x000d_
          NOSIG=",2019-12-23 07:00:00,1020.0,1.0,-1559.8363066306756,12.576780755625501,3.2900738327472303,0.0
63,METAR,RKSI,7,5000,320,11,3,"222230Z 32011KT 5000 BR FEW010 SCT020 03/01 Q1020 WS_x000d_
          R16 R34 NOSIG=",2019-12-23 07:30:00,1020.0,1.0,-1559.8363066306756,10.963637825902333,0.8936697502117663,0.0
64,METAR,RKSI,7,4000,320,13,3,"222300Z 32013KT 4000 BR FEW005 SCT020 03/01 Q1020_x000d_
          NOSIG=",2019-12-23 08:00:00,1020.0,1.0,-1559.8363066306756,12.95702652152094,1.0561551593411784,0.0
65,METAR,RKSI,7,4200,340,13,3,222330Z 34013KT 4200 BR SCT005 03/01 Q1021 NOSIG=,2019-12-23 08:30:00,1021.0,1.0,-1593.756786484931,12.536848548572546,3.439102858327212,0.0
66,METAR,RKSI,0,6000,340,10,2,230000Z 34010KT 6000 SCT010 02/00 Q1021 NOSIG=,2019-12-23 09:00:00,1021.0,0.0,-1724.983231913173,9.643729652748114,2.6454637371747785,0.0
67,METAR,RKSI,0,7000,340,10,3,230030Z 34010KT 7000 FEW015 03/M00 Q1021 NOSIG=,2019-12-23 09:30:00,1021.0,0.0,-1599.6370005372364,9.643729652748114,2.6454637371747785,0.0
68,METAR,RKSI,0,8000,340,10,3,230100Z 34010KT 8000 FEW030 03/M00 Q1022 NOSIG=,2019-12-23 10:00:00,1022.0,0.0,-1633.52760010957,9.643729652748114,2.6454637371747785,0.0
69,METAR,RKSI,0,10000,330,12,4,230130Z 33012KT 9999 SCT025 04/00 Q1022 NOSIG=,2019-12-23 10:30:00,1022.0,0.0,-1508.7119172454634,11.947919624429304,1.1167885422841506,0.0
70,METAR,RKSI,0,10000,340,12,4,230200Z 34012KT 9999 SCT025 04/00 Q1022 NOSIG=,2019-12-23 11:00:00,1022.0,0.0,-1508.7119172454634,11.572475583297736,3.1745564846097345,0.0
71,METAR,RKSI,0,10000,340,11,4,230230Z 34011KT 9999 SCT020 04/00 Q1023 NOSIG=,2019-12-23 11:30:00,1023.0,0.0,-1542.548346078034,10.608102618022924,2.9100101108922565,0.0
72,METAR,RKSI,0,10000,340,10,4,230300Z 34010KT 9999 SCT020 04/M01 Q1022 NOSIG=,2019-12-23 12:00:00,1022.0,-1.0,-1514.2167775188113,9.643729652748114,2.6454637371747785,0.0
73,METAR,RKSI,0,10000,330,11,4,230330Z 33011KT 9999 BKN020 04/00 Q1022 NOSIG=,2019-12-23 12:30:00,1022.0,0.0,-1508.7119172454634,10.952259655726861,1.0237228304271382,0.0
74,METAR,RKSI,0,10000,340,11,5,230400Z 34011KT 9999 BKN020 05/00 Q1022 NOSIG=,2019-12-23 13:00:00,1022.0,0.0,-1384.4511864676758,10.608102618022924,2.9100101108922565,0.0
75,METAR,RKSI,0,10000,330,8,5,"230430Z 33008KT 310V020 9999 SCT020 05/M00 Q1022_x000d_
          NOSIG=",2019-12-23 13:30:00,1022.0,0.0,-1384.4511864676758,7.965279749619535,0.7445256948561004,0.0
76,METAR,RKSI,0,10000,340,8,6,230500Z 34008KT 9999 SCT020 06/M00 Q1022 NOSIG=,2019-12-23 14:00:00,1022.0,0.0,-1260.7409584726959,7.7149837221984905,2.116370989739823,0.0
77,METAR,RKSI,0,10000,330,8,5,230530Z 33008KT 9999 SCT020 05/M01 Q1022 NOSIG=,2019-12-23 14:30:00,1022.0,-1.0,-1389.9513894521435,7.965279749619535,0.7445256948561004,0.0
78,METAR,RKSI,0,10000,330,7,5,230600Z 33007KT 9999 SCT025 05/M01 Q1022 NOSIG=,2019-12-23 15:00:00,1022.0,-1.0,-1389.9513894521435,6.969619780917093,0.6514599829990879,0.0
79,METAR,RKSI,0,10000,310,7,5,"230630Z 31007KT 280V340 9999 SCT028 05/M01 Q1023_x000d_
          NOSIG=",2019-12-23 15:30:00,1023.0,-1.0,-1423.755069061587,6.7721127145675775,1.7715782176331238,0.0
80,METAR,RKSI,0,10000,320,7,4,230700Z 32007KT 9999 SCT028 04/M01 Q1023 NOSIG=,2019-12-23 16:00:00,1023.0,-1.0,-1548.0490803447408,6.976860434665121,0.5686989319529422,0.0
81,METAR,RKSI,0,10000,320,6,4,230730Z 32006KT 9999 SCT025 04/M01 Q1023 NOSIG=,2019-12-23 16:30:00,1023.0,-1.0,-1548.0490803447408,5.980166086855818,0.4874562273882362,0.0
82,METAR,RKSI,0,10000,330,7,4,230800Z 33007KT 9999 SCT025 04/M01 Q1024 NOSIG=,2019-12-23 17:00:00,1024.0,-1.0,-1581.8560395909767,6.969619780917093,0.6514599829990879,0.0
83,METAR,RKSI,0,10000,340,6,3,230830Z 34006KT 9999 SCT025 03/M02 Q1024 NOSIG=,2019-12-23 17:30:00,1024.0,-2.0,-1711.889302517294,5.786237791648868,1.5872782423048672,0.0
84,METAR,RKSI,0,10000,350,8,2,230900Z 35008KT 9999 SCT025 02/M02 Q1024 NOSIG=,2019-12-23 18:00:00,1024.0,-2.0,-1837.331273300802,7.230271818348578,3.423911423035699,0.0
85,METAR,RKSI,0,10000,360,4,2,230930Z 36004KT 9999 FEW025 02/M02 Q1024 NOSIG=,2019-12-23 18:30:00,1024.0,-2.0,-1837.331273300802,3.2629358819961105,2.313709020162705,0.0
86,METAR,RKSI,0,10000,10,5,2,231000Z 01005KT 9999 FEW025 02/M01 Q1025 NOSIG=,2019-12-23 19:00:00,1025.0,-1.0,-1866.0106589786285,3.5144914989608784,3.556451813778969,0.0
87,METAR,RKSI,7,5000,360,5,2,231030Z 36005KT 5000 BR FEW025 02/M02 Q1025 NOSIG=,2019-12-23 19:30:00,1025.0,-2.0,-1871.1666181919627,4.078669852495138,2.8921362752033812,0.0
88,METAR,RKSI,7,5000,10,6,1,231100Z 01006KT 5000 BR FEW025 01/M02 Q1025 NOSIG=,2019-12-23 20:00:00,1025.0,-2.0,-1997.2018609577776,4.217389798753054,4.267742176534763,0.0
89,METAR,RKSI,7,5000,10,6,1,231130Z 01006KT 5000 BR FEW025 01/M02 Q1026 NOSIG=,2019-12-23 20:30:00,1026.0,-2.0,-2031.0408547562652,4.217389798753054,4.267742176534763,0.0
90,METAR,RKSI,7,4200,360,4,0,231200Z 36004KT 4200 BR FEW025 00/M03 Q1026 NOSIG=,2019-12-23 21:00:00,1026.0,-3.0,-2162.507897550443,3.2629358819961105,2.313709020162705,0.0
91,METAR,RKSI,7,4200,360,3,0,231230Z 36003KT 4200 BR FEW025 00/M03 Q1026 NOSIG=,2019-12-23 21:30:00,1026.0,-3.0,-2162.507897550443,2.447201911497083,1.735281765122029,0.0
92,METAR,RKSI,7,3500,10,4,0,231300Z 01004KT 3500 BR FEW025 M00/M03 Q1026 NOSIG=,2019-12-23 22:00:00,1026.0,-3.0,-2162.507897550443,2.8115931991687027,2.8451614510231753,0.0
93,METAR,RKSI,7,3500,20,3,0,231330Z 02003KT 3500 BR NSC M00/M03 Q1027 NOSIG=,2019-12-23 22:30:00,1027.0,-3.0,-2196.34706345837,1.7061162597895216,2.4676238181866,0.0
94,METAR,RKSI,7,3500,20,6,0,231400Z 02006KT 3500 BR NSC 00/M03 Q1027 NOSIG=,2019-12-23 23:00:00,1027.0,-3.0,-2196.34706345837,3.4122325195790433,4.9352476363732,0.0
95,METAR,RKSI,7,3500,20,5,0,231430Z 02005KT 3500 BR NSC M00/M03 Q1027 NOSIG=,2019-12-23 23:30:00,1027.0,-3.0,-2196.34706345837,2.843527099649203,4.112706363644333,0.0
96,METAR,RKSI,7,3500,40,5,-1,231500Z 04005KT 3500 BR NSC M01/M04 Q1027 NOSIG=,2019-12-24 00:00:00,1027.0,-4.0,-2328.1126475356637,1.2654130125950867,4.83722336754827,0.0
97,METAR,RKSI,7,3500,30,5,-1,231530Z 03005KT 3500 BR NSC M01/M04 Q1026 NOSIG=,2019-12-24 00:30:00,1026.0,-4.0,-2294.2476820957777,2.0861635683088258,4.5439984117802,0.0
98,METAR,RKSI,7,3500,40,3,-2,231600Z 04003KT 3500 BR NSC M02/M04 Q1026 NOSIG=,2019-12-24 01:00:00,1026.0,-4.0,-2422.0415750674365,0.7592478075570519,2.9023340205289623,0.0
99,METAR,RKSI,7,3500,50,5,-2,231630Z 05005KT 3500 BR NSC M02/M04 Q1026 NOSIG=,2019-12-24 01:30:00,1026.0,-4.0,-2422.0415750674365,0.406213522823527,4.983471739046515,0.0
100,METAR,RKSI,7,3500,80,2,-2,231700Z 08002KT 3500 BR NSC M02/M04 Q1027 NOSIG=,2019-12-24 02:00:00,1027.0,-4.0,-2455.9358492470496,0.855977855758925,1.8075679545871444,0.0
101,METAR,RKSI,7,4000,10,4,-1,231730Z 01004KT 4000 BR NSC M01/M04 Q1027 NOSIG=,2019-12-24 02:30:00,1027.0,-4.0,-2328.1126475356637,2.8115931991687027,2.8451614510231753,0.0
102,METAR,RKSI,7,4000,10,5,-1,231800Z 01005KT 4000 BR NSC M01/M04 Q1027 NOSIG=,2019-12-24 03:00:00,1027.0,-4.0,-2328.1126475356637,3.5144914989608784,3.556451813778969,0.0
103,METAR,RKSI,7,4200,50,4,-2,"231830Z 05004KT 360V080 4200 BR NSC M02/M05 Q1027_x000d_
          NOSIG=",2019-12-24 03:30:00,1027.0,-5.0,-2460.1725782185804,0.3249708182588216,3.9867773912372124,0.0
104,METAR,RKSI,7,4500,20,4,-1,231900Z 02004KT 4500 BR NSC M01/M05 Q1027 NOSIG=,2019-12-24 04:00:00,1027.0,-5.0,-2332.345712962528,2.2748216797193623,3.2901650909154663,0.0
105,METAR,RKSI,7,4500,30,4,-2,231930Z 03004KT 4500 BR NSC M02/M05 Q1027 NOSIG=,2019-12-24 04:30:00,1027.0,-5.0,-2460.1725782185804,1.6689308546470605,3.6351987294241606,0.0
106,METAR,RKSI,7,4000,30,6,-1,232000Z 03006KT 4000 BR NSC M01/M04 Q1027 NOSIG=,2019-12-24 05:00:00,1027.0,-4.0,-2328.1126475356637,2.503396281970591,5.452798094136241,0.0
107,METAR,RKSI,7,4000,40,7,-2,232030Z 04007KT 4000 BR NSC M02/M04 Q1027 NOSIG=,2019-12-24 05:30:00,1027.0,-4.0,-2455.9358492470496,1.7715782176331212,6.772112714567578,0.0
108,METAR,RKSI,7,4000,40,7,-2,232100Z 04007KT 4000 BR NSC M02/M04 Q1028 NOSIG=,2019-12-24 06:00:00,1028.0,-4.0,-2489.8048430603003,1.7715782176331212,6.772112714567578,0.0
109,METAR,RKSI,7,4000,60,4,-2,232130Z 06004KT 4000 BR NSC M02/M04 Q1028 NOSIG=,2019-12-24 06:30:00,1028.0,-4.0,-2489.8048430603003,0.3722628474280518,3.982639874809767,0.0
110,METAR,RKSI,7,4000,160,3,-2,"232200Z 16003KT 080V200 4000 BR NSC M02/M04 Q1028_x000d_
          NOSIG=",2019-12-24 07:00:00,1028.0,-4.0,-2489.8048430603003,2.893118895824434,0.7936391211524347,0.0
111,METAR,RKSI,7,4000,80,5,-2,232230Z 08005KT 4000 BR NSC M02/M04 Q1029 NOSIG=,2019-12-24 07:30:00,1029.0,-4.0,-2523.648599968289,2.1399446393973127,4.518919886467861,0.0
112,METAR,RKSI,7,4000,60,5,-3,232300Z 06005KT 4000 BR NSC M03/M05 Q1029 NOSIG=,2019-12-24 08:00:00,1029.0,-5.0,-2656.3482366429016,0.4653285592850648,4.978299843512209,0.0
113,METAR,RKSI,7,4000,20,4,-2,232330Z 02004KT 4000 BR NSC M02/M04 Q1029 NOSIG=,2019-12-24 08:30:00,1029.0,-4.0,-2523.648599968289,2.2748216797193623,3.2901650909154663,0.0
114,METAR,RKSI,7,4000,50,3,-1,"240000Z 05003KT 030V090 4000 BR NSC M01/M04 Q1029_x000d_
          NOSIG=",2019-12-24 09:00:00,1029.0,-4.0,-2395.7668463204586,0.24372811369411623,2.9900830434279095,0.0
115,METAR,RKSI,7,4000,30,6,-1,240030Z 03006KT 4000 BR NSC M01/M04 Q1029 NOSIG=,2019-12-24 09:30:00,1029.0,-4.0,-2395.7668463204586,2.503396281970591,5.452798094136241,0.0
116,METAR,RKSI,0,7000,40,9,0,240100Z 04009KT 7000 NSC M00/M04 Q1029 NOSIG=,2019-12-24 10:00:00,1029.0,-4.0,-2268.4640995883474,2.277743422671156,8.707002061586886,0.0
117,METAR,RKSI,0,7000,40,10,0,240130Z 04010KT 7000 NSC 00/M03 Q1029 NOSIG=,2019-12-24 10:30:00,1029.0,-3.0,-2263.949711017273,2.5308260251901733,9.67444673509654,0.0
118,METAR,RKSI,0,6000,40,11,1,240200Z 04011KT 6000 NSC 01/M03 Q1029 NOSIG=,2019-12-24 11:00:00,1029.0,-3.0,-2137.225119377353,2.7839086277091907,10.641891408606194,0.0
119,METAR,RKSI,0,6000,40,9,2,240230Z 04009KT 6000 NSC 02/M03 Q1029 NOSIG=,2019-12-24 11:30:00,1029.0,-3.0,-2011.070118998081,2.277743422671156,8.707002061586886,0.0
120,METAR,RKSI,0,6000,40,8,3,240300Z 04008KT 6000 NSC 03/M03 Q1028 NOSIG=,2019-12-24 12:00:00,1028.0,-3.0,-1851.7779913504821,2.0246608201521386,7.739557388077232,0.0
121,METAR,RKSI,0,7000,50,8,3,240330Z 05008KT 7000 NSC 03/M04 Q1028 NOSIG=,2019-12-24 12:30:00,1028.0,-4.0,-1856.2841629481454,0.6499416365176433,7.973554782474425,0.0
122,METAR,RKSI,0,7000,70,7,4,240400Z 07007KT 030V110 7000 NSC 04/M04 Q1027 NOSIG=,2019-12-24 13:00:00,1027.0,-4.0,-1697.5840998384658,1.8518246160223477,6.750610756923679,0.0
123,METAR,RKSI,0,7000,20,6,4,240430Z 02006KT 360V070 7000 NSC 04/M05 Q1027 NOSIG=,2019-12-24 13:30:00,1027.0,-5.0,-1701.7990936675783,3.4122325195790433,4.9352476363732,0.0
124,METAR,RKSI,0,9000,20,6,4,240500Z 02006KT 360V060 9000 NSC 04/M05 Q1027 NOSIG=,2019-12-24 14:00:00,1027.0,-5.0,-1701.7990936675783,3.4122325195790433,4.9352476363732,0.0
125,METAR,RKSI,0,9000,20,6,4,240530Z 02006KT 9000 NSC 04/M05 Q1026 NOSIG=,2019-12-24 14:30:00,1026.0,-5.0,-1668.0818503797234,3.4122325195790433,4.9352476363732,0.0
126,METAR,RKSI,0,10000,30,5,4,240600Z 03005KT 360V060 CAVOK 04/M06 Q1026 NOSIG=,2019-12-24 15:00:00,1026.0,-6.0,-1672.025450535711,2.0861635683088258,4.5439984117802,0.0
127,METAR,RKSI,0,10000,40,7,4,240630Z 04007KT CAVOK 04/M06 Q1026 NOSIG=,2019-12-24 15:30:00,1026.0,-6.0,-1672.025450535711,1.7715782176331212,6.772112714567578,0.0
128,METAR,RKSI,0,10000,40,6,4,240700Z 04006KT CAVOK 04/M07 Q1026 NOSIG=,2019-12-24 16:00:00,1026.0,-7.0,-1675.710119963189,1.5184956151141038,5.8046680410579246,0.0
129,METAR,RKSI,0,10000,40,6,4,240730Z 04006KT CAVOK 04/M05 Q1027 NOSIG=,2019-12-24 16:30:00,1027.0,-5.0,-1701.7990936675783,1.5184956151141038,5.8046680410579246,0.0
130,METAR,RKSI,0,10000,30,3,3,240800Z 03003KT CAVOK 03/M05 Q1027 NOSIG=,2019-12-24 17:00:00,1027.0,-5.0,-1826.7788640554227,1.2516981409852954,2.7263990470681203,0.0
131,METAR,RKSI,0,10000,40,4,2,240830Z 04004KT CAVOK 02/M05 Q1027 NOSIG=,2019-12-24 17:30:00,1027.0,-5.0,-1952.318823551492,1.0123304100760693,3.869778694038616,0.0
132,METAR,RKSI,0,9000,50,5,2,240900Z 05005KT 9000 NSC 02/M05 Q1027 NOSIG=,2019-12-24 18:00:00,1027.0,-5.0,-1952.318823551492,0.406213522823527,4.983471739046515,0.0
133,METAR,RKSI,0,7000,60,4,2,240930Z 06004KT 7000 NSC 02/M04 Q1027 NOSIG=,2019-12-24 18:30:00,1027.0,-4.0,-1948.0966497746247,0.3722628474280518,3.982639874809767,0.0
134,METAR,RKSI,0,7000,70,3,1,241000Z 07003KT 7000 NSC 01/M05 Q1026 NOSIG=,2019-12-24 19:00:00,1026.0,-5.0,-2044.6199432957214,0.7936391211524347,2.893118895824434,0.0
135,METAR,RKSI,0,7000,30,2,1,241030Z 03002KT 7000 NSC 01/M04 Q1027 NOSIG=,2019-12-24 19:30:00,1027.0,-4.0,-2074.197744766658,0.8344654273235302,1.8175993647120803,0.0
136,METAR,RKSI,0,7000,10,2,0,241100Z 01002KT 7000 NSC M00/M05 Q1027 NOSIG=,2019-12-24 20:00:00,1027.0,-5.0,-2205.097606105479,1.4057965995843513,1.4225807255115877,0.0
137,METAR,RKSI,0,6000,10,4,0,241130Z 01004KT 6000 NSC 00/M04 Q1027 NOSIG=,2019-12-24 20:30:00,1027.0,-4.0,-2200.8681876359137,2.8115931991687027,2.8451614510231753,0.0
138,METAR,RKSI,0,6000,50,5,0,241200Z 05005KT 6000 NSC 00/M04 Q1027 NOSIG=,2019-12-24 21:00:00,1027.0,-4.0,-2200.8681876359137,0.406213522823527,4.983471739046515,0.0
139,METAR,RKSI,0,6000,50,2,0,241230Z 05002KT 6000 NSC 00/M04 Q1027 NOSIG=,2019-12-24 21:30:00,1027.0,-4.0,-2200.8681876359137,0.1624854091294108,1.9933886956186062,0.0
140,METAR,RKSI,0,6000,60,4,0,241300Z 06004KT 6000 NSC 00/M04 Q1026 NOSIG=,2019-12-24 22:00:00,1026.0,-4.0,-2167.032398235365,0.3722628474280518,3.982639874809767,0.0
141,METAR,RKSI,0,7000,60,4,1,241330Z 06004KT 7000 NSC 01/M04 Q1027 NOSIG=,2019-12-24 22:30:00,1027.0,-4.0,-2074.197744766658,0.3722628474280518,3.982639874809767,0.0
142,METAR,RKSI,0,7000,70,5,0,241400Z 07005KT 7000 NSC M00/M05 Q1026 NOSIG=,2019-12-24 23:00:00,1026.0,-5.0,-2171.2649749591333,1.3227318685873912,4.821864826374057,0.0
143,METAR,RKSI,0,7000,90,5,-1,241430Z 09005KT 060V120 7000 NSC M01/M06 Q1026 NOSIG=,2019-12-24 23:30:00,1026.0,-6.0,-2302.4444166656817,2.892136275203383,4.078669852495136,0.0
144,METAR,RKSI,0,7000,70,4,-2,241500Z 07004KT 7000 NSC M02/M06 Q1026 NOSIG=,2019-12-25 00:00:00,1026.0,-6.0,-2430.2454035751934,1.058185494869913,3.8574918610992452,0.0
145,METAR,RKSI,0,7000,60,4,-1,241530Z 06004KT 7000 NSC M01/M05 Q1026 NOSIG=,2019-12-25 00:30:00,1026.0,-5.0,-2298.4839085001827,0.3722628474280518,3.982639874809767,0.0
146,METAR,RKSI,0,7000,60,5,-1,241600Z 06005KT 7000 NSC M01/M05 Q1026 NOSIG=,2019-12-25 01:00:00,1026.0,-5.0,-2298.4839085001827,0.4653285592850648,4.978299843512209,0.0
147,METAR,RKSI,0,7000,50,6,-3,241630Z 05006KT 7000 NSC M03/M05 Q1026 NOSIG=,2019-12-25 01:30:00,1026.0,-5.0,-2554.6624330357795,0.48745622738823247,5.980166086855819,0.0
148,METAR,RKSI,0,7000,50,6,-2,241700Z 05006KT 7000 NSC M02/M04 Q1026 NOSIG=,2019-12-25 02:00:00,1026.0,-4.0,-2422.0415750674365,0.48745622738823247,5.980166086855819,0.0
149,METAR,RKSI,7,5000,50,6,-1,241730Z 05006KT 5000 BR NSC M01/M05 Q1026 NOSIG=,2019-12-25 02:30:00,1026.0,-5.0,-2298.4839085001827,0.48745622738823247,5.980166086855819,0.0
150,METAR,RKSI,7,5000,60,6,-2,241800Z 06006KT 5000 BR NSC M02/M05 Q1025 NOSIG=,2019-12-25 03:00:00,1025.0,-5.0,-2392.365038797013,0.5583942711420777,5.973959812214651,0.0
151,METAR,RKSI,7,4200,50,7,-2,241830Z 05007KT 4200 BR NSC M02/M05 Q1025 NOSIG=,2019-12-25 03:30:00,1025.0,-5.0,-2392.365038797013,0.5686989319529379,6.976860434665122,0.0
152,METAR,RKSI,7,4200,50,6,-2,241900Z 05006KT 4200 BR NSC M02/M05 Q1025 NOSIG=,2019-12-25 04:00:00,1025.0,-5.0,-2392.365038797013,0.48745622738823247,5.980166086855819,0.0
153,METAR,RKSI,7,4200,40,5,-2,241930Z 04005KT 4200 BR NSC M02/M04 Q1025 NOSIG=,2019-12-25 04:30:00,1025.0,-4.0,-2388.1219769430963,1.2654130125950867,4.83722336754827,0.0
154,METAR,RKSI,7,3500,50,6,-2,242000Z 05006KT 3500 BR NSC M02/M04 Q1024 NOSIG=,2019-12-25 05:00:00,1024.0,-4.0,-2354.1770111777205,0.48745622738823247,5.980166086855819,0.0
155,METAR,RKSI,7,3500,50,7,-2,242030Z 05007KT 3500 BR NSC M02/M04 Q1025 NOSIG=,2019-12-25 05:30:00,1025.0,-4.0,-2388.1219769430963,0.5686989319529379,6.976860434665122,0.0
156,METAR,RKSI,7,3500,50,6,-2,242100Z 05006KT 3500 BR NSC M02/M04 Q1025 NOSIG=,2019-12-25 06:00:00,1025.0,-4.0,-2388.1219769430963,0.48745622738823247,5.980166086855819,0.0
157,METAR,RKSI,7,3500,80,2,-2,242130Z 08002KT 3500 BR NSC M02/M04 Q1025 NOSIG=,2019-12-25 06:30:00,1025.0,-4.0,-2388.1219769430963,0.855977855758925,1.8075679545871444,0.0
158,METAR,RKSI,7,3000,70,3,-2,242200Z 07003KT 3000 BR NSC M02/M04 Q1025 NOSIG=,2019-12-25 07:00:00,1025.0,-4.0,-2388.1219769430963,0.7936391211524347,2.893118895824434,0.0
159,METAR,RKSI,7,3000,50,4,-1,"242230Z 05004KT 020V080 3000 BR NSC M01/M03 Q1026_x000d_
          NOSIG=",2019-12-25 07:30:00,1026.0,-3.0,-2289.719280009067,0.3249708182588216,3.9867773912372124,0.0
160,METAR,RKSI,7,3500,50,4,-1,242300Z 05004KT 3500 BR NSC M01/M03 Q1026 NOSIG=,2019-12-25 08:00:00,1026.0,-3.0,-2289.719280009067,0.3249708182588216,3.9867773912372124,0.0
161,METAR,RKSI,7,3500,70,5,0,242330Z 07005KT 3500 BR NSC M00/M03 Q1026 NOSIG=,2019-12-25 08:30:00,1026.0,-3.0,-2162.507897550443,1.3227318685873912,4.821864826374057,0.0
162,METAR,RKSI,7,3500,50,5,0,250000Z 05005KT 3500 BR NSC M00/M03 Q1026 NOSIG=,2019-12-25 09:00:00,1026.0,-3.0,-2162.507897550443,0.406213522823527,4.983471739046515,0.0
163,METAR,RKSI,7,3500,50,5,0,250030Z 05005KT 3500 BR NSC 00/M03 Q1026 NOSIG=,2019-12-25 09:30:00,1026.0,-3.0,-2162.507897550443,0.406213522823527,4.983471739046515,0.0
164,METAR,RKSI,7,3500,50,5,1,250100Z 05005KT 3500 BR NSC 01/M02 Q1026 NOSIG=,2019-12-25 10:00:00,1026.0,-2.0,-2031.0408547562652,0.406213522823527,4.983471739046515,0.0
165,METAR,RKSI,7,4000,60,5,2,250130Z 06005KT 4000 BR NSC 02/M02 Q1026 NOSIG=,2019-12-25 10:30:00,1026.0,-2.0,-1904.9766705332395,0.4653285592850648,4.978299843512209,0.0
166,METAR,RKSI,6,4000,140,4,3,"250200Z 14004KT 120V180 4000 HZ NSC 03/M02 Q1026_x000d_
          NOSIG=",2019-12-25 11:00:00,1026.0,-2.0,-1779.4770545058025,3.9867773912372124,0.3249708182588224,0.0
167,METAR,RKSI,6,4000,140,5,3,250230Z 14005KT 4000 HZ NSC 03/M01 Q1025 NOSIG=,2019-12-25 11:30:00,1025.0,-1.0,-1740.5442485399324,4.983471739046515,0.406213522823528,0.0
168,METAR,RKSI,6,4000,130,5,4,"250300Z 13005KT 100V160 4000 HZ NSC 04/M02 Q1024_x000d_
          NOSIG=",2019-12-25 12:00:00,1024.0,-2.0,-1587.0070835931444,4.83722336754827,1.2654130125950873,0.0
169,METAR,RKSI,6,4500,130,4,5,250330Z 13004KT 4500 HZ NSC 05/M02 Q1024 NOSIG=,2019-12-25 12:30:00,1024.0,-2.0,-1462.6801125860907,3.869778694038616,1.01233041007607,0.0
170,METAR,RKSI,6,5000,140,3,6,"250400Z 14003KT 100V200 5000 HZ NSC 06/M02 Q1024_x000d_
          NOSIG=",2019-12-25 13:00:00,1024.0,-2.0,-1338.9039378208856,2.9900830434279095,0.2437281136941168,0.0
171,METAR,RKSI,0,6000,150,3,5,250430Z 15003KT 090V220 6000 NSC 05/M05 Q1023 NOSIG=,2019-12-25 13:30:00,1023.0,-5.0,-1442.4689577240638,2.986979906107326,0.27919713557103826,0.0
172,METAR,RKSI,0,7000,250,2,6,250500Z 25002KT 7000 NSC 06/M03 Q1023 NOSIG=,2019-12-25 14:00:00,1023.0,-3.0,-1309.9777723986228,0.5290927474349563,1.9287459305496226,0.0
173,METAR,RKSI,0,7000,200,4,6,250530Z 20004KT 170V230 7000 NSC 06/M04 Q1023 NOSIG=,2019-12-25 14:30:00,1023.0,-4.0,-1314.489342073314,2.2748216797193623,3.2901650909154663,0.0
174,METAR,RKSI,0,8000,270,3,6,250600Z 27003KT 8000 NSC 06/M04 Q1023 NOSIG=,2019-12-25 15:00:00,1023.0,-4.0,-1314.489342073314,1.7352817651220291,2.4472019114970824,0.0
175,METAR,RKSI,0,8000,300,8,6,"250630Z 30008KT 8000 SCT030 BKN080 06/M02 Q1024_x000d_
          NOSIG=",2019-12-25 15:30:00,1024.0,-2.0,-1338.9039378208856,7.270397458848321,3.3378617092941223,0.0
176,METAR,RKSI,0,8000,320,6,6,"250700Z 32006KT 8000 SCT030 BKN080 06/M03 Q1023_x000d_
          NOSIG=",2019-12-25 16:00:00,1023.0,-3.0,-1309.9777723986228,5.980166086855818,0.4874562273882362,0.0
177,METAR,RKSI,0,8000,350,4,5,"250730Z 35004KT 320V020 8000 FEW030 BKN080 05/M02_x000d_
          Q1023 NOSIG=",2019-12-25 16:30:00,1023.0,-2.0,-1428.9056111794641,3.615135909174289,1.7119557115178494,0.0
178,METAR,RKSI,0,10000,330,1,5,"250800Z 33001KT 9999 FEW030 BKN200 05/M02 Q1023_x000d_
          NOSIG=",2019-12-25 17:00:00,1023.0,-2.0,-1428.9056111794641,0.9956599687024419,0.09306571185701255,0.0
179,METAR,RKSI,0,8000,20,3,4,250830Z 02003KT 8000 NSC 04/M02 Q1023 NOSIG=,2019-12-25 17:30:00,1023.0,-2.0,-1553.2039836766376,1.7061162597895216,2.4676238181866,0.0
180,METAR,RKSI,0,8000,60,3,3,250900Z 06003KT 8000 NSC 03/M02 Q1022 NOSIG=,2019-12-25 18:00:00,1022.0,-2.0,-1644.20029178761,0.27919713557103887,2.9869799061073254,0.0
181,METAR,RKSI,0,7000,70,2,3,250930Z 07002KT 7000 NSC 03/M02 Q1022 NOSIG=,2019-12-25 18:30:00,1022.0,-2.0,-1644.20029178761,0.5290927474349565,1.9287459305496226,0.0
182,METAR,RKSI,0,7000,60,2,3,251000Z 06002KT 7000 NSC 03/M02 Q1022 NOSIG=,2019-12-25 19:00:00,1022.0,-2.0,-1644.20029178761,0.1861314237140259,1.9913199374048836,0.0
183,METAR,RKSI,0,7000,130,3,3,251030Z 13003KT 7000 NSC 03/M03 Q1022 NOSIG=,2019-12-25 19:30:00,1022.0,-3.0,-1649.0360334802772,2.9023340205289623,0.7592478075570525,0.0
184,METAR,RKSI,0,7000,40,3,2,251100Z 04003KT 7000 NSC 02/M03 Q1022 NOSIG=,2019-12-25 20:00:00,1022.0,-3.0,-1774.4243970358068,0.7592478075570519,2.9023340205289623,0.0
185,METAR,RKSI,0,8000,50,2,2,"251130Z 05002KT 8000 SCT030 BKN200 02/M03 Q1022_x000d_
          NOSIG=",2019-12-25 20:30:00,1022.0,-3.0,-1774.4243970358068,0.1624854091294108,1.9933886956186062,0.0
186,METAR,RKSI,0,10000,40,2,3,"251200Z 04002KT 9999 SCT030 BKN200 03/M03 Q1022_x000d_
          NOSIG=",2019-12-25 21:00:00,1022.0,-3.0,-1649.0360334802772,0.5061652050380346,1.934889347019308,0.0
187,METAR,RKSI,0,10000,30,3,3,"251230Z 03003KT 9999 SCT035 BKN200 03/M03 Q1022_x000d_
          NOSIG=",2019-12-25 21:30:00,1022.0,-3.0,-1649.0360334802772,1.2516981409852954,2.7263990470681203,0.0
188,METAR,RKSI,0,10000,50,4,3,"251300Z 05004KT 9999 SCT040 BKN200 03/M02 Q1022_x000d_
          NOSIG=",2019-12-25 22:00:00,1022.0,-2.0,-1644.20029178761,0.3249708182588216,3.9867773912372124,0.0
189,METAR,RKSI,0,9000,40,4,3,"251330Z 04004KT 9000 SCT040 BKN100 03/M01 Q1021_x000d_
          NOSIG=",2019-12-25 22:30:00,1021.0,-1.0,-1605.150675565472,1.0123304100760693,3.869778694038616,0.0
190,METAR,RKSI,0,7000,60,5,3,251400Z 06005KT 7000 NSC 03/M01 Q1021 NOSIG=,2019-12-25 23:00:00,1021.0,-1.0,-1605.150675565472,0.4653285592850648,4.978299843512209,0.0
191,METAR,RKSI,0,7000,60,4,3,251430Z 06004KT 7000 NSC 03/M02 Q1021 NOSIG=,2019-12-25 23:30:00,1021.0,-2.0,-1610.317704876364,0.3722628474280518,3.982639874809767,0.0
192,METAR,RKSI,0,10000,60,4,3,251500Z 06004KT CAVOK 03/M02 Q1021 NOSIG=,2019-12-26 00:00:00,1021.0,-2.0,-1610.317704876364,0.3722628474280518,3.982639874809767,0.0
193,METAR,RKSI,0,10000,30,5,3,251530Z 03005KT CAVOK 03/M02 Q1021 NOSIG=,2019-12-26 00:30:00,1021.0,-2.0,-1610.317704876364,2.0861635683088258,4.5439984117802,0.0
194,METAR,RKSI,0,10000,40,6,3,251600Z 04006KT CAVOK 03/M02 Q1020 NOSIG=,2019-12-26 01:00:00,1020.0,-2.0,-1576.4096716198906,1.5184956151141038,5.8046680410579246,0.0
195,METAR,RKSI,0,10000,30,6,3,251630Z 03006KT CAVOK 03/M02 Q1020 NOSIG=,2019-12-26 01:30:00,1020.0,-2.0,-1576.4096716198906,2.503396281970591,5.452798094136241,0.0
196,METAR,RKSI,0,8000,40,5,3,251700Z 04005KT 8000 NSC 03/M02 Q1020 NOSIG=,2019-12-26 02:00:00,1020.0,-2.0,-1576.4096716198906,1.2654130125950867,4.83722336754827,0.0
197,METAR,RKSI,0,7000,30,5,3,251730Z 03005KT 7000 NSC 03/M01 Q1020 NOSIG=,2019-12-26 02:30:00,1020.0,-1.0,-1571.23875959447,2.0861635683088258,4.5439984117802,0.0
198,METAR,RKSI,0,6000,30,6,3,251800Z 03006KT 6000 NSC 03/M01 Q1019 NOSIG=,2019-12-26 03:00:00,1019.0,-1.0,-1537.3013464050105,2.503396281970591,5.452798094136241,0.0
199,METAR,RKSI,0,7000,50,3,3,251830Z 05003KT 7000 NSC 03/M01 Q1019 NOSIG=,2019-12-26 03:30:00,1019.0,-1.0,-1537.3013464050105,0.24372811369411623,2.9900830434279095,0.0
200,METAR,RKSI,0,7000,360,3,3,251900Z 36003KT 7000 NSC 03/M01 Q1019 NOSIG=,2019-12-26 04:00:00,1019.0,-1.0,-1537.3013464050105,2.447201911497083,1.735281765122029,0.0
201,METAR,RKSI,0,7000,40,3,3,251930Z 04003KT 7000 NSC 03/M01 Q1019 NOSIG=,2019-12-26 04:30:00,1019.0,-1.0,-1537.3013464050105,0.7592478075570519,2.9023340205289623,0.0
202,METAR,RKSI,0,7000,60,3,3,252000Z 06003KT 7000 NSC 03/M01 Q1018 NOSIG=,2019-12-26 05:00:00,1018.0,-1.0,-1503.3383917235954,0.27919713557103887,2.9869799061073254,0.0
203,METAR,RKSI,0,7000,30,4,3,252030Z 03004KT 7000 NSC 03/M01 Q1018 NOSIG=,2019-12-26 05:30:00,1018.0,-1.0,-1503.3383917235954,1.6689308546470605,3.6351987294241606,0.0
204,METAR,RKSI,7,5000,30,3,3,252100Z 03003KT 5000 BR NSC 03/M00 Q1018 NOSIG=,2019-12-26 06:00:00,1018.0,0.0,-1497.8122635804446,1.2516981409852954,2.7263990470681203,0.0
205,METAR,RKSI,7,4200,50,4,4,"252130Z 05004KT 4200 BR SCT040 OVC080 04/00 Q1018_x000d_
          NOSIG=",2019-12-26 06:30:00,1018.0,0.0,-1373.1118151166268,0.3249708182588216,3.9867773912372124,0.0
206,METAR,RKSI,7,4200,50,4,3,"252200Z 05004KT 4200 BR SCT035 OVC080 03/M01 Q1018_x000d_
          NOSIG=",2019-12-26 07:00:00,1018.0,-1.0,-1503.3383917235954,0.3249708182588216,3.9867773912372124,0.0
207,METAR,RKSI,7,4200,40,4,3,"252230Z 04004KT 360V060 4200 BR BKN030 OVC080 03/M01_x000d_
          Q1018 NOSIG=",2019-12-26 07:30:00,1018.0,-1.0,-1503.3383917235954,1.0123304100760693,3.869778694038616,0.0
208,METAR,RKSI,4,3500,60,4,3,"252300Z 06004KT 3500 -RA BR BKN025 OVC080 03/M01_x000d_
          Q1018 NOSIG=",2019-12-26 08:00:00,1018.0,-1.0,-1503.3383917235954,0.3722628474280518,3.982639874809767,1.0
209,METAR,RKSI,4,3500,360,2,3,"252330Z 36002KT 3500 -RA BR BKN025 OVC080 03/M01_x000d_
          Q1019 NOSIG=",2019-12-26 08:30:00,1019.0,-1.0,-1537.3013464050105,1.6314679409980553,1.1568545100813525,1.0
210,METAR,RKSI,4,3500,290,3,3,"260000Z 29003KT 240V330 3500 -RA BR BKN025 OVC080_x000d_
          03/M01 Q1019 NOSIG=",2019-12-26 09:00:00,1019.0,-1.0,-1537.3013464050105,2.4676238181865995,1.7061162597895225,1.0
211,METAR,RKSI,4,3500,310,6,3,"260030Z 31006KT 3500 -RA BR BKN025 OVC080 03/M00_x000d_
          Q1019 NOSIG=",2019-12-26 09:30:00,1019.0,0.0,-1531.7793765056315,5.804668041057924,1.5184956151141062,1.0
212,METAR,RKSI,4,4000,310,5,3,"260100Z 31005KT 4000 -RA BR FEW015 BKN030 OVC080_x000d_
          03/00 Q1019 NOSIG=",2019-12-26 10:00:00,1019.0,0.0,-1531.7793765056315,4.83722336754827,1.2654130125950886,1.0
213,METAR,RKSI,7,4500,320,7,3,"260130Z 32007KT 4500 BR FEW015 BKN030 OVC080 03/00_x000d_
          Q1018 NOSIG=",2019-12-26 10:30:00,1018.0,0.0,-1497.8122635804446,6.976860434665121,0.5686989319529422,0.0
214,METAR,RKSI,7,3500,310,10,3,"260200Z 31010KT 3500 BR SCT015 BKN030 OVC080 03/M00_x000d_
          Q1018 NOSIG=",2019-12-26 11:00:00,1018.0,0.0,-1497.8122635804446,9.67444673509654,2.5308260251901773,0.0
215,METAR,RKSI,7,5000,330,9,3,"260230Z 33009KT 5000 BR FEW015 BKN030 OVC080 03/M01_x000d_
          Q1018 NOSIG=",2019-12-26 11:30:00,1018.0,-1.0,-1503.3383917235954,8.960939718321978,0.8375914067131129,0.0
216,METAR,RKSI,0,6000,310,8,3,"260300Z 31008KT 6000 BKN040 OVC080 03/M01 Q1018_x000d_
          NOSIG=",2019-12-26 12:00:00,1018.0,-1.0,-1503.3383917235954,7.739557388077231,2.0246608201521417,0.0
217,METAR,RKSI,0,6000,330,9,4,"260330Z 33009KT 6000 FEW040 BKN110 04/M01 Q1017_x000d_
          NOSIG=",2019-12-26 12:30:00,1017.0,-1.0,-1344.6735698138639,8.960939718321978,0.8375914067131129,0.0
218,METAR,RKSI,0,7000,320,9,3,"260400Z 32009KT 7000 SCT045 OVC110 03/M02 Q1017_x000d_
          NOSIG=",2019-12-26 13:00:00,1017.0,-2.0,-1474.5324518275056,8.970249130283728,0.7311843410823543,0.0
219,METAR,RKSI,0,7000,320,9,3,"260430Z 32009KT 7000 SCT045 BKN110 03/M03 Q1016_x000d_
          NOSIG=",2019-12-26 13:30:00,1016.0,-3.0,-1445.3798051310712,8.970249130283728,0.7311843410823543,0.0
220,METAR,RKSI,0,8000,320,9,4,260500Z 32009KT 8000 NSC 04/M02 Q1016 NOSIG=,2019-12-26 14:00:00,1016.0,-2.0,-1315.8703865437876,8.970249130283728,0.7311843410823543,0.0
221,METAR,RKSI,0,8000,320,10,4,260530Z 32010KT 8000 NSC 04/M04 Q1016 NOSIG=,2019-12-26 14:30:00,1016.0,-4.0,-1325.2669178780047,9.96694347809303,0.8124270456470604,0.0
222,METAR,RKSI,0,9000,320,10,4,260600Z 32010KT 9000 NSC 04/M04 Q1016 NOSIG=,2019-12-26 15:00:00,1016.0,-4.0,-1325.2669178780047,9.96694347809303,0.8124270456470604,0.0
223,METAR,RKSI,0,10000,310,10,3,260630Z 31010KT CAVOK 03/M04 Q1016 NOSIG=,2019-12-26 15:30:00,1016.0,-4.0,-1449.9267072423786,9.67444673509654,2.5308260251901773,0.0
224,METAR,RKSI,0,10000,310,11,3,"260700Z 31011KT 9999 FEW030 BKN080 03/M04 Q1016_x000d_
          NOSIG=",2019-12-26 16:00:00,1016.0,-4.0,-1449.9267072423786,10.641891408606194,2.7839086277091947,0.0
225,METAR,RKSI,0,9000,310,11,3,"260730Z 31011KT 9000 FEW030 SCT070 03/M04 Q1016_x000d_
          NOSIG=",2019-12-26 16:30:00,1016.0,-4.0,-1449.9267072423786,10.641891408606194,2.7839086277091947,0.0
226,METAR,RKSI,0,9000,320,14,3,260800Z 32014KT 9000 FEW030 03/M05 Q1016 NOSIG=,2019-12-26 17:00:00,1016.0,-5.0,-1454.1802359851656,13.953720869330242,1.1373978639058844,0.0
227,METAR,RKSI,0,9000,310,14,2,260830Z 31014KT 9000 FEW030 02/M04 Q1017 NOSIG=,2019-12-26 17:30:00,1017.0,-4.0,-1609.1774258414484,13.544225429135155,3.5431564352662477,0.0
228,METAR,RKSI,0,9000,310,15,2,260900Z 31015KT 9000 FEW030 02/M04 Q1017 NOSIG=,2019-12-26 18:00:00,1017.0,-4.0,-1609.1774258414484,14.511670102644809,3.7962390377852655,0.0
229,METAR,RKSI,0,9000,310,13,2,"260930Z 31013KT 9000 FEW030 SCT090 02/M04 Q1017_x000d_
          NOSIG=",2019-12-26 18:30:00,1017.0,-4.0,-1609.1774258414484,12.576780755625501,3.2900738327472303,0.0
230,METAR,RKSI,0,10000,310,15,1,"261000Z 31015KT 9999 FEW030 SCT090 01/M05 Q1018_x000d_
          NOSIG=",2019-12-26 19:00:00,1018.0,-5.0,-1773.2784413269128,14.511670102644809,3.7962390377852655,0.0
231,METAR,RKSI,0,10000,320,14,1,"261030Z 32014KT 9999 FEW030 SCT090 01/M05 Q1018_x000d_
          NOSIG=",2019-12-26 19:30:00,1018.0,-5.0,-1773.2784413269128,13.953720869330242,1.1373978639058844,0.0
232,METAR,RKSI,0,10000,310,16,0,"261100Z 31016KT 9999 FEW030 00/M06 Q1018 WS R16 R34_x000d_
          NOSIG=",2019-12-26 20:00:00,1018.0,-6.0,-1903.6712543440226,15.479114776154463,4.049321640304283,0.0
233,METAR,RKSI,0,10000,310,18,0,"261130Z 31018KT 9999 FEW030 00/M06 Q1018 WS R16 R34_x000d_
          NOSIG=",2019-12-26 20:30:00,1018.0,-6.0,-1903.6712543440226,17.414004123173772,4.555486845342319,0.0
234,METAR,RKSI,0,10000,310,16,0,261200Z 31016KT 9999 FEW030 M00/M06 Q1019 NOSIG=,2019-12-26 21:00:00,1019.0,-6.0,-1937.7043180481357,15.479114776154463,4.049321640304283,0.0
235,METAR,RKSI,0,10000,320,17,0,"261230Z 32017KT 9999 FEW030 M00/M07 Q1019 WS R16 R34_x000d_
          NOSIG=",2019-12-26 21:30:00,1019.0,-7.0,-1941.42103848893,16.943803912758153,1.3811259776000024,0.0
236,METAR,RKSI,0,10000,320,16,-1,261300Z 32016KT 9999 FEW030 M01/M07 Q1019 NOSIG=,2019-12-26 22:00:00,1019.0,-7.0,-2068.441781420428,15.947109564948848,1.2998832730352965,0.0
237,METAR,RKSI,0,10000,320,15,-1,"261330Z 32015KT 9999 FEW030 M01/M07 Q1020 WS R16 R34_x000d_
          NOSIG=",2019-12-26 22:30:00,1020.0,-7.0,-2102.475797701278,14.950415217139545,1.2186405684705905,0.0
238,METAR,RKSI,0,10000,310,13,-1,261400Z 31013KT CAVOK M01/M07 Q1020 NOSIG=,2019-12-26 23:00:00,1020.0,-7.0,-2102.475797701278,12.576780755625501,3.2900738327472303,0.0
239,METAR,RKSI,0,10000,310,13,-1,261430Z 31013KT CAVOK M01/M07 Q1020 NOSIG=,2019-12-26 23:30:00,1020.0,-7.0,-2102.475797701278,12.576780755625501,3.2900738327472303,0.0
240,METAR,RKSI,0,10000,330,13,-1,261500Z 33013KT CAVOK M01/M06 Q1020 NOSIG=,2019-12-27 00:00:00,1020.0,-6.0,-2098.7586665592808,12.943579593131744,1.2098542541411632,0.0
241,METAR,RKSI,0,10000,310,13,-1,261530Z 31013KT CAVOK M01/M07 Q1020 NOSIG=,2019-12-27 00:30:00,1020.0,-7.0,-2102.475797701278,12.576780755625501,3.2900738327472303,0.0
242,METAR,RKSI,0,10000,310,11,-2,261600Z 31011KT CAVOK M02/M07 Q1021 NOSIG=,2019-12-27 01:00:00,1021.0,-7.0,-2264.141618959138,10.641891408606194,2.7839086277091947,0.0
243,METAR,RKSI,0,10000,310,10,-2,261630Z 31010KT CAVOK M02/M08 Q1021 NOSIG=,2019-12-27 01:30:00,1021.0,-8.0,-2267.6129277224522,9.67444673509654,2.5308260251901773,0.0
244,METAR,RKSI,0,10000,310,10,-2,261700Z 31010KT CAVOK M02/M08 Q1021 NOSIG=,2019-12-27 02:00:00,1021.0,-8.0,-2267.6129277224522,9.67444673509654,2.5308260251901773,0.0
245,METAR,RKSI,0,10000,320,9,-2,261730Z 32009KT CAVOK M02/M07 Q1022 NOSIG=,2019-12-27 02:30:00,1022.0,-7.0,-2298.1539898674414,8.970249130283728,0.7311843410823543,0.0
246,METAR,RKSI,0,10000,320,10,-3,261800Z 32010KT CAVOK M03/M08 Q1022 NOSIG=,2019-12-27 03:00:00,1022.0,-8.0,-2429.8953760196746,9.96694347809303,0.8124270456470604,0.0
247,METAR,RKSI,0,10000,320,9,-2,261830Z 32009KT CAVOK M02/M08 Q1022 NOSIG=,2019-12-27 03:30:00,1022.0,-8.0,-2301.622696589824,8.970249130283728,0.7311843410823543,0.0
248,METAR,RKSI,0,10000,320,10,-3,261900Z 32010KT CAVOK M03/M08 Q1022 NOSIG=,2019-12-27 04:00:00,1022.0,-8.0,-2429.8953760196746,9.96694347809303,0.8124270456470604,0.0
249,METAR,RKSI,0,10000,320,10,-3,261930Z 32010KT CAVOK M03/M08 Q1022 NOSIG=,2019-12-27 04:30:00,1022.0,-8.0,-2429.8953760196746,9.96694347809303,0.8124270456470604,0.0
250,METAR,RKSI,0,10000,320,6,-3,262000Z 32006KT CAVOK M03/M08 Q1022 NOSIG=,2019-12-27 05:00:00,1022.0,-8.0,-2429.8953760196746,5.980166086855818,0.4874562273882362,0.0
251,METAR,RKSI,0,10000,320,5,-3,262030Z 32005KT CAVOK M03/M08 Q1022 NOSIG=,2019-12-27 05:30:00,1022.0,-8.0,-2429.8953760196746,4.983471739046515,0.4062135228235302,0.0
252,METAR,RKSI,0,10000,310,8,-3,262100Z 31008KT CAVOK M03/M08 Q1022 NOSIG=,2019-12-27 06:00:00,1022.0,-8.0,-2429.8953760196746,7.739557388077231,2.0246608201521417,0.0
253,METAR,RKSI,0,10000,360,5,-3,262130Z 36005KT 330V030 CAVOK M03/M08 Q1023 NOSIG=,2019-12-27 06:30:00,1023.0,-8.0,-2463.909186156722,4.078669852495138,2.8921362752033812,0.0
254,METAR,RKSI,0,10000,360,6,-3,262200Z 36006KT CAVOK M03/M09 Q1023 NOSIG=,2019-12-27 07:00:00,1023.0,-9.0,-2467.146475308755,4.894403822994166,3.470563530244058,0.0
255,METAR,RKSI,0,10000,360,6,-3,262230Z 36006KT CAVOK M03/M09 Q1024 NOSIG=,2019-12-27 07:30:00,1024.0,-9.0,-2501.1324062463996,4.894403822994166,3.470563530244058,0.0
256,METAR,RKSI,0,10000,360,5,-4,262300Z 36005KT CAVOK M04/M09 Q1024 NOSIG=,2019-12-27 08:00:00,1024.0,-9.0,-2630.0549434459986,4.078669852495138,2.8921362752033812,0.0
257,METAR,RKSI,0,10000,20,3,-3,262330Z 02003KT CAVOK M03/M09 Q1024 NOSIG=,2019-12-27 08:30:00,1024.0,-9.0,-2501.1324062463996,1.7061162597895216,2.4676238181866,0.0
258,METAR,RKSI,0,10000,10,6,-2,270000Z 01006KT CAVOK M02/M09 Q1025 NOSIG=,2019-12-27 09:00:00,1025.0,-9.0,-2406.7289468935014,4.217389798753054,4.267742176534763,0.0
259,METAR,RKSI,0,10000,340,7,-1,270030Z 34007KT CAVOK M01/M09 Q1025 NOSIG=,2019-12-27 09:30:00,1025.0,-9.0,-2278.948294914442,6.750610756923679,1.851824616022345,0.0
260,METAR,RKSI,0,10000,330,7,-1,270100Z 33007KT 300V360 CAVOK M01/M09 Q1026 NOSIG=,2019-12-27 10:00:00,1026.0,-9.0,-2312.8246796266244,6.969619780917093,0.6514599829990879,0.0
261,METAR,RKSI,0,10000,340,7,0,270130Z 34007KT CAVOK 00/M08 Q1026 NOSIG=,2019-12-27 10:30:00,1026.0,-8.0,-2182.371726167995,6.750610756923679,1.851824616022345,0.0
262,METAR,RKSI,0,10000,340,6,0,270200Z 34006KT 310V010 CAVOK M00/M08 Q1026 NOSIG=,2019-12-27 11:00:00,1026.0,-8.0,-2182.371726167995,5.786237791648868,1.5872782423048672,0.0
263,METAR,RKSI,0,10000,340,6,0,270230Z 34006KT 310V010 CAVOK 00/M09 Q1026 NOSIG=,2019-12-27 11:30:00,1026.0,-9.0,-2185.593390930426,5.786237791648868,1.5872782423048672,0.0
264,METAR,RKSI,0,10000,350,7,1,270300Z 35007KT CAVOK 01/M12 Q1025 NOSIG=,2019-12-27 12:00:00,1025.0,-12.0,-2033.5293696315798,6.326487841055006,2.9959224951562367,0.0
265,METAR,RKSI,0,10000,330,6,1,270330Z 33006KT 300V360 CAVOK 01/M11 Q1025 NOSIG=,2019-12-27 12:30:00,1025.0,-11.0,-2030.92178555539,5.973959812214652,0.5583942711420753,0.0
266,METAR,RKSI,0,10000,340,6,1,270400Z 34006KT 290V010 CAVOK 01/M12 Q1025 NOSIG=,2019-12-27 13:00:00,1025.0,-12.0,-2033.5293696315798,5.786237791648868,1.5872782423048672,0.0
267,METAR,RKSI,0,10000,290,9,1,270430Z 29009KT 260V320 CAVOK 01/M14 Q1025 NOSIG=,2019-12-27 13:30:00,1025.0,-14.0,-2038.2137267432292,7.402871454559798,5.118348779368567,0.0
268,METAR,RKSI,0,10000,300,9,1,270500Z 30009KT CAVOK 01/M12 Q1025 NOSIG=,2019-12-27 14:00:00,1025.0,-12.0,-2033.5293696315798,8.17919714120436,3.755094422955888,0.0
269,METAR,RKSI,0,10000,280,8,1,270530Z 28008KT 260V320 CAVOK 01/M12 Q1025 NOSIG=,2019-12-27 14:30:00,1025.0,-12.0,-2033.5293696315798,5.69032290204635,5.623186398337406,0.0
270,METAR,RKSI,0,10000,300,7,2,270600Z 30007KT 270V340 CAVOK 02/M10 Q1025 NOSIG=,2019-12-27 15:00:00,1025.0,-10.0,-1902.060342450155,6.361597776492281,2.920628995632357,0.0
271,METAR,RKSI,0,10000,310,7,2,270630Z 31007KT CAVOK 02/M10 Q1025 NOSIG=,2019-12-27 15:30:00,1025.0,-10.0,-1902.060342450155,6.7721127145675775,1.7715782176331238,0.0
272,METAR,RKSI,0,10000,310,6,2,270700Z 31006KT 9999 FEW030 02/M10 Q1025 NOSIG=,2019-12-27 16:00:00,1025.0,-10.0,-1902.060342450155,5.804668041057924,1.5184956151141062,0.0
273,METAR,RKSI,0,10000,310,6,1,"270730Z 31006KT 270V330 9999 FEW030 01/M10 Q1025_x000d_
          NOSIG=",2019-12-27 16:30:00,1025.0,-10.0,-2028.1220302918043,5.804668041057924,1.5184956151141062,0.0
274,METAR,RKSI,0,10000,300,7,1,270800Z 30007KT 9999 FEW030 01/M10 Q1026 NOSIG=,2019-12-27 17:00:00,1026.0,-10.0,-2061.937932279574,6.361597776492281,2.920628995632357,0.0
275,METAR,RKSI,0,10000,300,6,1,270830Z 30006KT 9999 FEW030 01/M09 Q1026 NOSIG=,2019-12-27 17:30:00,1026.0,-9.0,-2058.9360598476387,5.452798094136241,2.5033962819705917,0.0
276,METAR,RKSI,0,10000,300,2,1,270900Z 30002KT 9999 SCT040 01/M08 Q1026 NOSIG=,2019-12-27 18:00:00,1026.0,-8.0,-2055.717160541345,1.8175993647120803,0.8344654273235306,0.0
277,METAR,RKSI,0,10000,330,1,0,270930Z 33001KT 9999 SCT040 00/M08 Q1026 NOSIG=,2019-12-27 18:30:00,1026.0,-8.0,-2182.371726167995,0.9956599687024419,0.09306571185701255,0.0
278,METAR,RKSI,0,10000,30,1,0,271000Z 03001KT 9999 FEW040 M00/M08 Q1026 NOSIG=,2019-12-27 19:00:00,1026.0,-8.0,-2182.371726167995,0.4172327136617651,0.9087996823560401,0.0
279,METAR,RKSI,0,10000,150,2,-1,271030Z 15002KT 9999 FEW040 M01/M09 Q1026 NOSIG=,2019-12-27 19:30:00,1026.0,-9.0,-2312.8246796266244,1.9913199374048838,0.1861314237140255,0.0
280,METAR,RKSI,0,10000,150,3,-1,271100Z 15003KT 9999 FEW040 M01/M08 Q1026 NOSIG=,2019-12-27 20:00:00,1026.0,-8.0,-2309.600236876161,2.986979906107326,0.27919713557103826,0.0
281,METAR,RKSI,0,10000,110,3,-1,271130Z 11003KT 080V150 CAVOK M01/M08 Q1026 NOSIG=,2019-12-27 20:30:00,1026.0,-8.0,-2309.600236876161,2.4676238181866,1.7061162597895214,0.0
282,METAR,RKSI,0,10000,140,3,-1,271200Z 14003KT CAVOK M01/M07 Q1026 NOSIG=,2019-12-27 21:00:00,1026.0,-7.0,-2306.144883948738,2.9900830434279095,0.2437281136941168,0.0
283,METAR,RKSI,0,10000,140,2,-1,271230Z 14002KT CAVOK M01/M08 Q1027 NOSIG=,2019-12-27 21:30:00,1027.0,-8.0,-2343.453748415647,1.9933886956186062,0.1624854091294112,0.0
284,METAR,RKSI,0,10000,70,2,-2,271300Z 07002KT CAVOK M02/M08 Q1027 NOSIG=,2019-12-27 22:00:00,1027.0,-8.0,-2471.2902272211513,0.5290927474349565,1.9287459305496226,0.0
285,METAR,RKSI,0,10000,110,2,-3,271330Z 11002KT CAVOK M03/M08 Q1027 NOSIG=,2019-12-27 22:30:00,1027.0,-8.0,-2599.7102897290956,1.6450825454577334,1.137410839859681,0.0
286,METAR,RKSI,0,10000,140,2,-2,271400Z 14002KT CAVOK M02/M07 Q1027 NOSIG=,2019-12-27 23:00:00,1027.0,-7.0,-2467.834463511153,1.9933886956186062,0.1624854091294112,0.0
287,METAR,RKSI,0,10000,120,1,-3,271430Z 12001KT CAVOK M03/M08 Q1027 NOSIG=,2019-12-27 23:30:00,1027.0,-8.0,-2599.7102897290956,0.9087996823560401,0.41723271366176523,0.0
288,METAR,RKSI,0,10000,120,5,-1,271500Z 12005KT CAVOK M01/M06 Q1027 NOSIG=,2019-12-28 00:00:00,1027.0,-6.0,-2336.303266234019,4.5439984117802,2.086163568308826,0.0
289,METAR,RKSI,0,10000,120,5,-1,271530Z 12005KT CAVOK M01/M06 Q1027 NOSIG=,2019-12-28 00:30:00,1027.0,-6.0,-2336.303266234019,4.5439984117802,2.086163568308826,0.0
290,METAR,RKSI,0,10000,140,5,-1,271600Z 14005KT CAVOK M01/M05 Q1027 NOSIG=,2019-12-28 01:00:00,1027.0,-5.0,-2332.345712962528,4.983471739046515,0.406213522823528,0.0
291,METAR,RKSI,0,10000,130,6,-2,271630Z 13006KT CAVOK M02/M06 Q1027 NOSIG=,2019-12-28 01:30:00,1027.0,-6.0,-2464.1335565902255,5.8046680410579246,1.518495615114105,0.0
292,METAR,RKSI,0,10000,150,8,-3,271700Z 15008KT CAVOK M03/M06 Q1027 NOSIG=,2019-12-28 02:00:00,1027.0,-6.0,-2592.547402398107,7.965279749619535,0.744525694856102,0.0
293,METAR,RKSI,0,10000,160,10,-1,271730Z 16010KT CAVOK M01/M06 Q1028 NOSIG=,2019-12-28 02:30:00,1028.0,-6.0,-2370.136867814275,9.643729652748114,2.6454637371747824,0.0
294,METAR,RKSI,0,10000,150,9,-1,271800Z 15009KT 9999 FEW030 M01/M06 Q1028 NOSIG=,2019-12-28 03:00:00,1028.0,-6.0,-2370.136867814275,8.960939718321978,0.8375914067131147,0.0
295,METAR,RKSI,0,10000,150,9,-2,271830Z 15009KT 9999 FEW030 M02/M05 Q1027 NOSIG=,2019-12-28 03:30:00,1027.0,-5.0,-2460.1725782185804,8.960939718321978,0.8375914067131147,0.0
296,METAR,RKSI,0,10000,150,9,-1,271900Z 15009KT 9999 FEW030 M01/M05 Q1027 NOSIG=,2019-12-28 04:00:00,1027.0,-5.0,-2332.345712962528,8.960939718321978,0.8375914067131147,0.0
297,METAR,RKSI,0,10000,150,9,-1,271930Z 15009KT 9999 FEW030 M01/M05 Q1028 NOSIG=,2019-12-28 04:30:00,1028.0,-5.0,-2366.1822643553087,8.960939718321978,0.8375914067131147,0.0
298,METAR,RKSI,0,10000,150,8,-1,272000Z 15008KT 9999 FEW030 M01/M05 Q1027 NOSIG=,2019-12-28 05:00:00,1027.0,-5.0,-2332.345712962528,7.965279749619535,0.744525694856102,0.0
299,METAR,RKSI,0,10000,150,7,-1,272030Z 15007KT CAVOK M01/M04 Q1027 NOSIG=,2019-12-28 05:30:00,1027.0,-4.0,-2328.1126475356637,6.969619780917093,0.6514599829990892,0.0
300,METAR,RKSI,0,10000,140,7,-1,272100Z 14007KT CAVOK M01/M04 Q1027 NOSIG=,2019-12-28 06:00:00,1027.0,-4.0,-2328.1126475356637,6.976860434665122,0.5686989319529392,0.0
301,METAR,RKSI,0,10000,140,9,-1,272130Z 14009KT CAVOK M01/M04 Q1027 NOSIG=,2019-12-28 06:30:00,1027.0,-4.0,-2328.1126475356637,8.970249130283728,0.7311843410823504,0.0
302,METAR,RKSI,0,10000,130,9,-1,272200Z 13009KT CAVOK M01/M04 Q1027 NOSIG=,2019-12-28 07:00:00,1027.0,-4.0,-2328.1126475356637,8.707002061586886,2.2777434226711573,0.0
303,METAR,RKSI,0,10000,140,9,-1,272230Z 14009KT CAVOK M01/M05 Q1028 NOSIG=,2019-12-28 07:30:00,1028.0,-5.0,-2366.1822643553087,8.970249130283728,0.7311843410823504,0.0
304,METAR,RKSI,0,10000,140,9,-1,272300Z 14009KT CAVOK M01/M06 Q1028 NOSIG=,2019-12-28 08:00:00,1028.0,-6.0,-2370.136867814275,8.970249130283728,0.7311843410823504,0.0
305,METAR,RKSI,0,10000,130,8,0,272330Z 13008KT CAVOK M00/M05 Q1028 NOSIG=,2019-12-28 08:30:00,1028.0,-5.0,-2238.905005938777,7.739557388077232,2.02466082015214,0.0
306,METAR,RKSI,0,10000,130,8,0,280000Z 13008KT CAVOK 00/M06 Q1028 NOSIG=,2019-12-28 09:00:00,1028.0,-6.0,-2242.8562023467184,7.739557388077232,2.02466082015214,0.0
307,METAR,RKSI,0,10000,140,13,1,280030Z 14013KT CAVOK 01/M06 Q1028 NOSIG=,2019-12-28 09:30:00,1028.0,-6.0,-2116.1497172378727,12.957026521520941,1.0561551593411729,0.0
308,METAR,RKSI,0,10000,140,13,1,280100Z 14013KT CAVOK 01/M07 Q1028 NOSIG=,2019-12-28 10:00:00,1028.0,-7.0,-2119.8383157771245,12.957026521520941,1.0561551593411729,0.0
309,METAR,RKSI,0,10000,150,14,2,280130Z 15014KT CAVOK 02/M06 Q1028 NOSIG=,2019-12-28 10:30:00,1028.0,-6.0,-1990.0127420059146,13.939239561834187,1.3029199659981785,0.0
310,METAR,RKSI,0,10000,140,13,3,280200Z 14013KT CAVOK 03/M06 Q1028 NOSIG=,2019-12-28 11:00:00,1028.0,-6.0,-1864.4406609581529,12.957026521520941,1.0561551593411729,0.0
311,METAR,RKSI,0,10000,140,13,3,280230Z 14013KT CAVOK 03/M06 Q1028 NOSIG=,2019-12-28 11:30:00,1028.0,-6.0,-1864.4406609581529,12.957026521520941,1.0561551593411729,0.0
312,METAR,RKSI,0,10000,140,12,4,280300Z 14012KT CAVOK 04/M05 Q1028 NOSIG=,2019-12-28 12:00:00,1028.0,-5.0,-1735.4911916950234,11.960332173711638,0.9749124547764672,0.0
313,METAR,RKSI,0,10000,150,13,4,280330Z 15013KT CAVOK 04/M05 Q1027 NOSIG=,2019-12-28 12:30:00,1027.0,-5.0,-1701.7990936675783,12.943579593131744,1.2098542541411657,0.0
314,METAR,RKSI,0,10000,160,11,4,"280400Z 16011KT 9999 FEW040 SCT070 BKN200 04/M05_x000d_
          Q1027 NOSIG=",2019-12-28 13:00:00,1027.0,-5.0,-1701.7990936675783,10.608102618022924,2.9100101108922605,0.0
315,METAR,RKSI,0,10000,160,11,5,"280430Z 16011KT 9999 FEW045 BKN070 05/M04 Q1027_x000d_
          NOSIG=",2019-12-28 13:30:00,1027.0,-4.0,-1573.163577118767,10.608102618022924,2.9100101108922605,0.0
316,METAR,RKSI,0,10000,140,10,5,"280500Z 14010KT 9999 FEW045 BKN070 05/M03 Q1027_x000d_
          NOSIG=",2019-12-28 14:00:00,1027.0,-3.0,-1568.6616844294783,9.96694347809303,0.812427045647056,0.0
317,METAR,RKSI,0,10000,150,9,5,"280530Z 15009KT 9999 BKN040 OVC070 05/M03 Q1027_x000d_
          NOSIG=",2019-12-28 14:30:00,1027.0,-3.0,-1568.6616844294783,8.960939718321978,0.8375914067131147,0.0
318,METAR,RKSI,0,10000,150,10,5,280600Z 15010KT 9999 OVC040 05/M03 Q1027 NOSIG=,2019-12-28 15:00:00,1027.0,-3.0,-1568.6616844294783,9.956599687024418,0.9306571185701275,0.0
319,METAR,RKSI,0,10000,140,9,5,280630Z 14009KT 9999 OVC045 05/M03 Q1027 NOSIG=,2019-12-28 15:30:00,1027.0,-3.0,-1568.6616844294783,8.970249130283728,0.7311843410823504,0.0
320,METAR,RKSI,0,10000,150,11,5,"280700Z 15011KT 9999 BKN045 BKN070 05/M03 Q1027_x000d_
          NOSIG=",2019-12-28 16:00:00,1027.0,-3.0,-1568.6616844294783,10.952259655726861,1.0237228304271402,0.0
321,METAR,RKSI,0,10000,150,10,5,"280730Z 15010KT 9999 SCT030 BKN070 05/M03 Q1027_x000d_
          NOSIG=",2019-12-28 16:30:00,1027.0,-3.0,-1568.6616844294783,9.956599687024418,0.9306571185701275,0.0
322,METAR,RKSI,0,10000,150,7,4,"280800Z 15007KT 9999 SCT030 BKN070 04/M03 Q1027_x000d_
          NOSIG=",2019-12-28 17:00:00,1027.0,-3.0,-1693.078395178085,6.969619780917093,0.6514599829990892,0.0
323,METAR,RKSI,0,10000,140,7,5,280830Z 14007KT 9999 BKN030 05/M03 Q1027 NOSIG=,2019-12-28 17:30:00,1027.0,-3.0,-1568.6616844294783,6.976860434665122,0.5686989319529392,0.0
324,METAR,RKSI,0,10000,140,8,4,280900Z 14008KT 9999 BKN035 04/M03 Q1028 NOSIG=,2019-12-28 18:00:00,1028.0,-3.0,-1726.7769944784766,7.973554782474425,0.6499416365176448,0.0
325,METAR,RKSI,0,10000,150,9,5,280930Z 15009KT 9999 BKN030 05/M03 Q1028 NOSIG=,2019-12-28 18:30:00,1028.0,-3.0,-1602.331773630871,8.960939718321978,0.8375914067131147,0.0
326,METAR,RKSI,0,10000,140,8,4,"281000Z 14008KT 9999 SCT030 BKN060 04/M03 Q1028_x000d_
          NOSIG=",2019-12-28 19:00:00,1028.0,-3.0,-1726.7769944784766,7.973554782474425,0.6499416365176448,0.0
327,METAR,RKSI,0,10000,140,9,4,281030Z 14009KT 9999 SCT030 04/M03 Q1027 NOSIG=,2019-12-28 19:30:00,1027.0,-3.0,-1693.078395178085,8.970249130283728,0.7311843410823504,0.0
328,METAR,RKSI,0,10000,150,10,4,"281100Z 15010KT 9999 FEW030 SCT060 04/M03 Q1028_x000d_
          NOSIG=",2019-12-28 20:00:00,1028.0,-3.0,-1726.7769944784766,9.956599687024418,0.9306571185701275,0.0
329,METAR,RKSI,0,10000,150,11,5,"281130Z 15011KT 9999 FEW030 BKN060 05/M02 Q1028_x000d_
          NOSIG=",2019-12-28 20:30:00,1028.0,-2.0,-1597.525835853649,10.952259655726861,1.0237228304271402,0.0
330,METAR,RKSI,0,10000,160,10,5,"281200Z 16010KT 9999 SCT030 BKN065 05/M01 Q1028_x000d_
          NOSIG=",2019-12-28 21:00:00,1028.0,-1.0,-1592.3945076966352,9.643729652748114,2.6454637371747824,0.0
331,METAR,RKSI,0,9000,160,11,5,281230Z 16011KT 9000 NSC 05/M01 Q1028 NOSIG=,2019-12-28 21:30:00,1028.0,-1.0,-1592.3945076966352,10.608102618022924,2.9100101108922605,0.0
332,METAR,RKSI,0,8000,150,9,4,281300Z 15009KT 8000 NSC 04/M01 Q1029 NOSIG=,2019-12-28 22:00:00,1029.0,-1.0,-1750.5122095461443,8.960939718321978,0.8375914067131147,0.0
333,METAR,RKSI,0,9000,150,7,4,281330Z 15007KT 9000 NSC 04/M02 Q1029 NOSIG=,2019-12-28 22:30:00,1029.0,-2.0,-1755.6440564379116,6.969619780917093,0.6514599829990892,0.0
334,METAR,RKSI,0,10000,120,6,4,281400Z 12006KT 090V160 CAVOK 04/M03 Q1028 NOSIG=,2019-12-28 23:00:00,1028.0,-3.0,-1726.7769944784766,5.452798094136241,2.5033962819705913,0.0
335,METAR,RKSI,0,10000,140,9,4,281430Z 14009KT CAVOK 04/M03 Q1028 NOSIG=,2019-12-28 23:30:00,1028.0,-3.0,-1726.7769944784766,8.970249130283728,0.7311843410823504,0.0
